IXPE                    
1 49954U 21121A   24181.58334491  .00004903  00000+0  33330-3 0  9991
2 49954   0.2299 301.6039 0009781 103.7745  21.0427 14.98350731  5449
